{
  "type": "FeatureCollection",
  "features": [
    {
      "type": "Feature",
      "properties": {
        "norad_id": 37781,
        "name": "HAIYANG-2A",
        "group": "resource",
        "lat": 5.415138637441589,
        "lon": 159.78036066102354,
        "alt_km": 969.8893607718146,
        "timestamp": "2025-12-03T19:33:06.636380+00:00",
        "meta_object_name": "HAIYANG-2A",
        "meta_object_id": "2011-043A",
        "meta_epoch": "2025-12-03T13:29:03.612768",
        "meta_mean_motion": 13.78834169,
        "meta_eccentricity": 0.0001646,
        "meta_inclination": 99.3377,
        "meta_ra_of_asc_node": 338.6378,
        "meta_arg_of_pericenter": 96.5015,
        "meta_mean_anomaly": 263.6324,
        "meta_ephemeris_type": 0,
        "meta_classification_type": "U",
        "meta_norad_cat_id": 37781,
        "meta_element_set_no": 999,
        "meta_rev_at_epoch": 71972,
        "meta_bstar": 5.398e-05,
        "meta_mean_motion_dot": 1.1e-07,
        "meta_mean_motion_ddot": 0,
        "tle_line1": "1 37781U 11043A   25337.56184737  .00000011  00000+0  53980-4 0  9996",
        "tle_line2": "2 37781  99.3377 338.6378 0001646  96.5015 263.6324 13.78834169719729"
      },
      "geometry": {
        "type": "Point",
        "coordinates": [
          159.78036066102354,
          5.415138637441589
        ]
      }
    },
    {
      "type": "Feature",
      "properties": {
        "norad_id": 37791,
        "name": "RASAT",
        "group": "resource",
        "lat": -45.570885028196756,
        "lon": 75.52228761517694,
        "alt_km": 686.0477089032429,
        "timestamp": "2025-12-03T19:33:06.636390+00:00",
        "meta_object_name": "RASAT",
        "meta_object_id": "2011-044D",
        "meta_epoch": "2025-12-03T13:29:54.358944",
        "meta_mean_motion": 14.6788815,
        "meta_eccentricity": 0.0021968,
        "meta_inclination": 98.0656,
        "meta_ra_of_asc_node": 66.9564,
        "meta_arg_of_pericenter": 92.6647,
        "meta_mean_anomaly": 329.3748,
        "meta_ephemeris_type": 0,
        "meta_classification_type": "U",
        "meta_norad_cat_id": 37791,
        "meta_element_set_no": 999,
        "meta_rev_at_epoch": 76448,
        "meta_bstar": 0.00018552,
        "meta_mean_motion_dot": 1.015e-05,
        "meta_mean_motion_ddot": 0,
        "tle_line1": "1 37791U 11044D   25337.56243471  .00001015  00000+0  18552-3 0  9999",
        "tle_line2": "2 37791  98.0656  66.9564 0021968  92.6647 329.3748 14.67888150764482"
      },
      "geometry": {
        "type": "Point",
        "coordinates": [
          75.52228761517694,
          -45.570885028196756
        ]
      }
    },
    {
      "type": "Feature",
      "properties": {
        "norad_id": 37841,
        "name": "SRMSAT",
        "group": "resource",
        "lat": -5.345416002162348,
        "lon": 147.04224021859685,
        "alt_km": 857.9817129478633,
        "timestamp": "2025-12-03T19:33:06.636401+00:00",
        "meta_object_name": "SRMSAT",
        "meta_object_id": "2011-058D",
        "meta_epoch": "2025-12-03T05:06:49.197024",
        "meta_mean_motion": 14.11506204,
        "meta_eccentricity": 0.0011731,
        "meta_inclination": 19.9698,
        "meta_ra_of_asc_node": 165.6115,
        "meta_arg_of_pericenter": 207.8469,
        "meta_mean_anomaly": 312.6999,
        "meta_ephemeris_type": 0,
        "meta_classification_type": "U",
        "meta_norad_cat_id": 37841,
        "meta_element_set_no": 999,
        "meta_rev_at_epoch": 73009,
        "meta_bstar": 0.00012787,
        "meta_mean_motion_dot": 5.01e-06,
        "meta_mean_motion_ddot": 0,
        "tle_line1": "1 37841U 11058D   25337.21306941  .00000501  00000+0  12787-3 0  9997",
        "tle_line2": "2 37841  19.9698 165.6115 0011731 207.8469 312.6999 14.11506204730093"
      },
      "geometry": {
        "type": "Point",
        "coordinates": [
          147.04224021859685,
          -5.345416002162348
        ]
      }
    },
    {
      "type": "Feature",
      "properties": {
        "norad_id": 38012,
        "name": "PLEIADES 1A",
        "group": "resource",
        "lat": 48.2416718022241,
        "lon": 41.44517857800589,
        "alt_km": 692.6919186992318,
        "timestamp": "2025-12-03T19:33:06.636411+00:00",
        "meta_object_name": "PLEIADES 1A",
        "meta_object_id": "2011-076F",
        "meta_epoch": "2025-12-03T11:40:23.265696",
        "meta_mean_motion": 14.58546648,
        "meta_eccentricity": 0.0001406,
        "meta_inclination": 98.1834,
        "meta_ra_of_asc_node": 50.3974,
        "meta_arg_of_pericenter": 81.1954,
        "meta_mean_anomaly": 45.0933,
        "meta_ephemeris_type": 0,
        "meta_classification_type": "U",
        "meta_norad_cat_id": 38012,
        "meta_element_set_no": 999,
        "meta_rev_at_epoch": 74346,
        "meta_bstar": 0.00015427,
        "meta_mean_motion_dot": 6.72e-06,
        "meta_mean_motion_ddot": 0,
        "tle_line1": "1 38012U 11076F   25337.48638039  .00000672  00000+0  15427-3 0  9996",
        "tle_line2": "2 38012  98.1834  50.3974 0001406  81.1954  45.0933 14.58546648743465"
      },
      "geometry": {
        "type": "Point",
        "coordinates": [
          41.44517857800589,
          48.2416718022241
        ]
      }
    },
    {
      "type": "Feature",
      "properties": {
        "norad_id": 38038,
        "name": "ZIYUAN 1-02C (ZY 1-02C)",
        "group": "resource",
        "lat": -73.77126203202056,
        "lon": -166.6563426472002,
        "alt_km": 772.6690764205578,
        "timestamp": "2025-12-03T19:33:06.636422+00:00",
        "meta_object_name": "ZIYUAN 1-02C (ZY 1-02C)",
        "meta_object_id": "2011-079A",
        "meta_epoch": "2025-12-03T12:15:35.892576",
        "meta_mean_motion": 14.37995212,
        "meta_eccentricity": 0.0006784,
        "meta_inclination": 98.4346,
        "meta_ra_of_asc_node": 43.6942,
        "meta_arg_of_pericenter": 164.0408,
        "meta_mean_anomaly": 319.9944,
        "meta_ephemeris_type": 0,
        "meta_classification_type": "U",
        "meta_norad_cat_id": 38038,
        "meta_element_set_no": 999,
        "meta_rev_at_epoch": 73108,
        "meta_bstar": 0.00027839,
        "meta_mean_motion_dot": 7.99e-06,
        "meta_mean_motion_ddot": 0,
        "tle_line1": "1 38038U 11079A   25337.51083209  .00000799  00000+0  27839-3 0  9994",
        "tle_line2": "2 38038  98.4346  43.6942 0006784 164.0408 319.9944 14.37995212731085"
      },
      "geometry": {
        "type": "Point",
        "coordinates": [
          -166.6563426472002,
          -73.77126203202056
        ]
      }
    },
    {
      "type": "Feature",
      "properties": {
        "norad_id": 38046,
        "name": "ZIYUAN 3-1 (ZY 3-1)",
        "group": "resource",
        "lat": -30.439394505590982,
        "lon": -140.21227975425722,
        "alt_km": 375.5938196546567,
        "timestamp": "2025-12-03T19:33:06.636432+00:00",
        "meta_object_name": "ZIYUAN 3-1 (ZY 3-1)",
        "meta_object_id": "2012-001A",
        "meta_epoch": "2025-12-03T12:31:28.488000",
        "meta_mean_motion": 15.66784662,
        "meta_eccentricity": 0.000223,
        "meta_inclination": 97.1778,
        "meta_ra_of_asc_node": 43.7357,
        "meta_arg_of_pericenter": 31.2198,
        "meta_mean_anomaly": 328.9195,
        "meta_ephemeris_type": 0,
        "meta_classification_type": "U",
        "meta_norad_cat_id": 38046,
        "meta_element_set_no": 999,
        "meta_rev_at_epoch": 77352,
        "meta_bstar": 0.00080727,
        "meta_mean_motion_dot": 0.00085596,
        "meta_mean_motion_ddot": 0,
        "tle_line1": "1 38046U 12001A   25337.52185750  .00085596  00000+0  80727-3 0  9997",
        "tle_line2": "2 38046  97.1778  43.7357 0002230  31.2198 328.9195 15.66784662773524"
      },
      "geometry": {
        "type": "Point",
        "coordinates": [
          -140.21227975425722,
          -30.439394505590982
        ]
      }
    },
    {
      "type": "Feature",
      "properties": {
        "norad_id": 38338,
        "name": "ARIRANG-3 (KOMPSAT-3)",
        "group": "resource",
        "lat": -25.06773684078248,
        "lon": 108.4074004766473,
        "alt_km": 697.344675240869,
        "timestamp": "2025-12-03T19:33:06.636443+00:00",
        "meta_object_name": "ARIRANG-3 (KOMPSAT-3)",
        "meta_object_id": "2012-025B",
        "meta_epoch": "2025-12-03T12:02:38.662368",
        "meta_mean_motion": 14.61692181,
        "meta_eccentricity": 0.0006016,
        "meta_inclination": 98.3308,
        "meta_ra_of_asc_node": 292.0224,
        "meta_arg_of_pericenter": 7.8954,
        "meta_mean_anomaly": 352.234,
        "meta_ephemeris_type": 0,
        "meta_classification_type": "U",
        "meta_norad_cat_id": 38338,
        "meta_element_set_no": 999,
        "meta_rev_at_epoch": 72275,
        "meta_bstar": 0.000197,
        "meta_mean_motion_dot": 9.33e-06,
        "meta_mean_motion_ddot": 0,
        "tle_line1": "1 38338U 12025B   25337.50183637  .00000933  00000+0  19700-3 0  9992",
        "tle_line2": "2 38338  98.3308 292.0224 0006016   7.8954 352.2340 14.61692181722756"
      },
      "geometry": {
        "type": "Point",
        "coordinates": [
          108.4074004766473,
          -25.06773684078248
        ]
      }
    }
  ]
}